CCSDS_OMM_VERS = 2.0
CREATION_DATE  = 
ORIGINATOR     = 

OBJECT_NAME    = IDEFIX & ARIANE 42P R/B
OBJECT_ID      = 2002-021B
CENTER_NAME    = EARTH
REF_FRAME      = TEME
TIME_SYSTEM    = UTC
MEAN_ELEMENT_THEORY = SGP/SGP4

EPOCH          = 2026-02-12T19:32:06.042912
MEAN_MOTION    = 14.31008057
ECCENTRICITY   = .00106372
INCLINATION    = 98.5844
RA_OF_ASC_NODE = 342.7216
ARG_OF_PERICENTER = 260.6930
MEAN_ANOMALY   = 99.3050

EPHEMERIS_TYPE = 0
CLASSIFICATION_TYPE = U
NORAD_CAT_ID   = 27422
ELEMENT_SET_NO = 999
REV_AT_EPOCH   = 24046
BSTAR          = .13156273E-3
MEAN_MOTION_DOT = .302E-5
MEAN_MOTION_DDOT = 0

CCSDS_OMM_VERS = 2.0
CREATION_DATE  = 
ORIGINATOR     = 

OBJECT_NAME    = AQUA
OBJECT_ID      = 2002-022A
CENTER_NAME    = EARTH
REF_FRAME      = TEME
TIME_SYSTEM    = UTC
MEAN_ELEMENT_THEORY = SGP/SGP4

EPOCH          = 2026-02-13T04:39:50.472288
MEAN_MOTION    = 14.61915292
ECCENTRICITY   = .0001358
INCLINATION    = 98.4128
RA_OF_ASC_NODE = 11.1220
ARG_OF_PERICENTER = 50.0827
MEAN_ANOMALY   = 75.1492

EPHEMERIS_TYPE = 0
CLASSIFICATION_TYPE = U
NORAD_CAT_ID   = 27424
ELEMENT_SET_NO = 999
REV_AT_EPOCH   = 26515
BSTAR          = .23502E-3
MEAN_MOTION_DOT = .1127E-4
MEAN_MOTION_DDOT = 0

CCSDS_OMM_VERS = 2.0
CREATION_DATE  = 
ORIGINATOR     = 

OBJECT_NAME    = CZ-4B R/B
OBJECT_ID      = 2002-024C
CENTER_NAME    = EARTH
REF_FRAME      = TEME
TIME_SYSTEM    = UTC
MEAN_ELEMENT_THEORY = SGP/SGP4

EPOCH          = 2026-02-13T04:13:17.494752
MEAN_MOTION    = 14.14543181
ECCENTRICITY   = .0051203
INCLINATION    = 98.8896
RA_OF_ASC_NODE = 97.6994
ARG_OF_PERICENTER = 92.7622
MEAN_ANOMALY   = 335.7469

EPHEMERIS_TYPE = 0
CLASSIFICATION_TYPE = U
NORAD_CAT_ID   = 27432
ELEMENT_SET_NO = 999
REV_AT_EPOCH   = 22577
BSTAR          = .44289E-4
MEAN_MOTION_DOT = .42E-6
MEAN_MOTION_DDOT = 0

CCSDS_OMM_VERS = 2.0
CREATION_DATE  = 
ORIGINATOR     = 

OBJECT_NAME    = MIDORI II (ADEOS-II)
OBJECT_ID      = 2002-056A
CENTER_NAME    = EARTH
REF_FRAME      = TEME
TIME_SYSTEM    = UTC
MEAN_ELEMENT_THEORY = SGP/SGP4

EPOCH          = 2026-02-12T21:09:50.855904
MEAN_MOTION    = 14.29266366
ECCENTRICITY   = .0002182
INCLINATION    = 98.7723
RA_OF_ASC_NODE = 2.1952
ARG_OF_PERICENTER = 77.0089
MEAN_ANOMALY   = 283.1336

EPHEMERIS_TYPE = 0
CLASSIFICATION_TYPE = U
NORAD_CAT_ID   = 27597
ELEMENT_SET_NO = 999
REV_AT_EPOCH   = 20675
BSTAR          = .15496E-3
MEAN_MOTION_DOT = .349E-5
MEAN_MOTION_DDOT = 0

CCSDS_OMM_VERS = 2.0
CREATION_DATE  = 
ORIGINATOR     = 

OBJECT_NAME    = H-2A R/B
OBJECT_ID      = 2002-056E
CENTER_NAME    = EARTH
REF_FRAME      = TEME
TIME_SYSTEM    = UTC
MEAN_ELEMENT_THEORY = SGP/SGP4

EPOCH          = 2026-02-12T20:33:48.618144
MEAN_MOTION    = 14.33743154
ECCENTRICITY   = .0069153
INCLINATION    = 98.3155
RA_OF_ASC_NODE = 5.1747
ARG_OF_PERICENTER = 235.1011
MEAN_ANOMALY   = 153.9685

EPHEMERIS_TYPE = 0
CLASSIFICATION_TYPE = U
NORAD_CAT_ID   = 27601
ELEMENT_SET_NO = 999
REV_AT_EPOCH   = 21055
BSTAR          = .12618807E-3
MEAN_MOTION_DOT = .318E-5
MEAN_MOTION_DDOT = 0

CCSDS_OMM_VERS = 2.0
CREATION_DATE  = 
ORIGINATOR     = 

OBJECT_NAME    = CZ-4B R/B
OBJECT_ID      = 2003-049C
CENTER_NAME    = EARTH
REF_FRAME      = TEME
TIME_SYSTEM    = UTC
MEAN_ELEMENT_THEORY = SGP/SGP4

EPOCH          = 2026-02-12T23:17:55.471488
MEAN_MOTION    = 14.54993294
ECCENTRICITY   = .0047278
INCLINATION    = 98.6851
RA_OF_ASC_NODE = 37.9112
ARG_OF_PERICENTER = 308.1121
MEAN_ANOMALY   = 51.5816

EPHEMERIS_TYPE = 0
CLASSIFICATION_TYPE = U
NORAD_CAT_ID   = 28059
ELEMENT_SET_NO = 999
REV_AT_EPOCH   = 18300
BSTAR          = .13121E-3
MEAN_MOTION_DOT = .521E-5
MEAN_MOTION_DDOT = 0

CCSDS_OMM_VERS = 2.0
CREATION_DATE  = 
ORIGINATOR     = 

OBJECT_NAME    = CZ-2C R/B
OBJECT_ID      = 2004-012C
CENTER_NAME    = EARTH
REF_FRAME      = TEME
TIME_SYSTEM    = UTC
MEAN_ELEMENT_THEORY = SGP/SGP4

EPOCH          = 2026-02-13T03:40:03.806976
MEAN_MOTION    = 15.61682346
ECCENTRICITY   = .0015479
INCLINATION    = 97.7303
RA_OF_ASC_NODE = 107.1704
ARG_OF_PERICENTER = 44.4307
MEAN_ANOMALY   = 315.8188

EPHEMERIS_TYPE = 0
CLASSIFICATION_TYPE = U
NORAD_CAT_ID   = 28222
ELEMENT_SET_NO = 999
REV_AT_EPOCH   = 20044
BSTAR          = .54856E-3
MEAN_MOTION_DOT = .47604E-3
MEAN_MOTION_DDOT = 0

CCSDS_OMM_VERS = 2.0
CREATION_DATE  = 
ORIGINATOR     = 

OBJECT_NAME    = SL-16 R/B
OBJECT_ID      = 2004-021B
CENTER_NAME    = EARTH
REF_FRAME      = TEME
TIME_SYSTEM    = UTC
MEAN_ELEMENT_THEORY = SGP/SGP4

EPOCH          = 2026-02-13T01:28:06.290688
MEAN_MOTION    = 14.14592032
ECCENTRICITY   = .00031
INCLINATION    = 70.9991
RA_OF_ASC_NODE = 284.1794
ARG_OF_PERICENTER = 70.6385
MEAN_ANOMALY   = 289.5072

EPHEMERIS_TYPE = 0
CLASSIFICATION_TYPE = U
NORAD_CAT_ID   = 28353
ELEMENT_SET_NO = 999
REV_AT_EPOCH   = 11935
BSTAR          = .17044E-3
MEAN_MOTION_DOT = .28E-5
MEAN_MOTION_DDOT = 0

CCSDS_OMM_VERS = 2.0
CREATION_DATE  = 
ORIGINATOR     = 

OBJECT_NAME    = CZ-4B R/B
OBJECT_ID      = 2004-035C
CENTER_NAME    = EARTH
REF_FRAME      = TEME
TIME_SYSTEM    = UTC
MEAN_ELEMENT_THEORY = SGP/SGP4

EPOCH          = 2026-02-13T00:54:02.506464
MEAN_MOTION    = 15.28604047
ECCENTRICITY   = .0033854
INCLINATION    = 97.3546
RA_OF_ASC_NODE = 78.5800
ARG_OF_PERICENTER = 58.1082
MEAN_ANOMALY   = 302.3444

EPHEMERIS_TYPE = 0
CLASSIFICATION_TYPE = U
NORAD_CAT_ID   = 28415
ELEMENT_SET_NO = 999
REV_AT_EPOCH   = 17614
BSTAR          = .31112E-3
MEAN_MOTION_DOT = .8731E-4
MEAN_MOTION_DDOT = 0

CCSDS_OMM_VERS = 2.0
CREATION_DATE  = 
ORIGINATOR     = 

OBJECT_NAME    = CZ-2C R/B
OBJECT_ID      = 2004-046B
CENTER_NAME    = EARTH
REF_FRAME      = TEME
TIME_SYSTEM    = UTC
MEAN_ELEMENT_THEORY = SGP/SGP4

EPOCH          = 2026-02-12T19:17:15.297792
MEAN_MOTION    = 14.26983381
ECCENTRICITY   = .01384201
INCLINATION    = 98.1994
RA_OF_ASC_NODE = 320.3335
ARG_OF_PERICENTER = 228.1739
MEAN_ANOMALY   = 130.7557

EPHEMERIS_TYPE = 0
CLASSIFICATION_TYPE = U
NORAD_CAT_ID   = 28480
ELEMENT_SET_NO = 999
REV_AT_EPOCH   = 10495
BSTAR          = .59132233E-4
MEAN_MOTION_DOT = .117E-5
MEAN_MOTION_DDOT = 0

CCSDS_OMM_VERS = 2.0
CREATION_DATE  = 
ORIGINATOR     = 

OBJECT_NAME    = ARIANE 5 R/B
OBJECT_ID      = 2004-049H
CENTER_NAME    = EARTH
REF_FRAME      = TEME
TIME_SYSTEM    = UTC
MEAN_ELEMENT_THEORY = SGP/SGP4

EPOCH          = 2026-02-13T01:01:39.025056
MEAN_MOTION    = 14.85216221
ECCENTRICITY   = .0085407
INCLINATION    = 98.2586
RA_OF_ASC_NODE = 211.5845
ARG_OF_PERICENTER = 71.2927
MEAN_ANOMALY   = 289.7533

EPHEMERIS_TYPE = 0
CLASSIFICATION_TYPE = U
NORAD_CAT_ID   = 28499
ELEMENT_SET_NO = 999
REV_AT_EPOCH   = 14213
BSTAR          = .11688E-3
MEAN_MOTION_DOT = .1006E-4
MEAN_MOTION_DDOT = 0

CCSDS_OMM_VERS = 2.0
CREATION_DATE  = 
ORIGINATOR     = 

OBJECT_NAME    = CZ-2D R/B
OBJECT_ID      = 2005-024B
CENTER_NAME    = EARTH
REF_FRAME      = TEME
TIME_SYSTEM    = UTC
MEAN_ELEMENT_THEORY = SGP/SGP4

EPOCH          = 2026-02-12T23:56:09.367296
MEAN_MOTION    = 15.57955403
ECCENTRICITY   = .0007645
INCLINATION    = 97.3618
RA_OF_ASC_NODE = 58.2811
ARG_OF_PERICENTER = 105.4815
MEAN_ANOMALY   = 254.7285

EPHEMERIS_TYPE = 0
CLASSIFICATION_TYPE = U
NORAD_CAT_ID   = 28738
ELEMENT_SET_NO = 999
REV_AT_EPOCH   = 13593
BSTAR          = .49149E-3
MEAN_MOTION_DOT = .36802E-3
MEAN_MOTION_DDOT = 0

